OBJECT_NAME,OBJECT_ID,EPOCH,MEAN_MOTION,ECCENTRICITY,INCLINATION,RA_OF_ASC_NODE,ARG_OF_PERICENTER,MEAN_ANOMALY,EPHEMERIS_TYPE,CLASSIFICATION_TYPE,NORAD_CAT_ID,ELEMENT_SET_NO,REV_AT_EPOCH,BSTAR,MEAN_MOTION_DOT,MEAN_MOTION_DDOT
GSAT0215 (GALILEO 19),2017-079A,2026-06-13T11:54:24.826752,1.70474538,.00030107,55.0744,221.6084,262.8024,97.2638,0,U,43055,999,5292,0,.62E-6,0
GSAT0216 (GALILEO 20),2017-079B,2026-06-10T06:25:34.900320,1.70474756,.00037016,55.0753,221.6973,276.7573,83.2861,0,U,43056,999,5288,0,.5E-6,0
GSAT0217 (GALILEO 21),2017-079C,2026-06-12T20:02:15.307296,1.70474017,.00044635,55.0731,221.6247,283.7261,76.3221,0,U,43057,999,5291,0,.61E-6,0
GSAT0218 (GALILEO 22),2017-079D,2026-06-13T01:19:09.756192,1.70474471,.00050247,55.0728,221.6159,272.4694,87.5720,0,U,43058,999,5294,0,.61E-6,0
BEIDOU-3 M7 (C27),2018-003A,2026-06-12T12:25:43.718304,1.86228217,.00049085,54.3326,302.4785,93.1066,266.9324,0,U,43107,999,5726,0,-.69E-6,0
BEIDOU-3 M8 (C28),2018-003B,2026-06-11T22:13:05.611296,1.86231100,.00024644,54.3258,302.4809,263.1764,96.7794,0,U,43108,999,5726,0,-.68E-6,0
BEIDOU-3 M4 (C22),2018-018A,2026-06-09T03:31:38.545824,1.86231351,.00076882,56.6431,63.4146,17.0743,342.9760,0,U,43207,999,5659,0,-.46E-6,0
BEIDOU-3 M9 (C29),2018-029A,2026-06-12T15:40:16.918176,1.86228237,.00008937,54.1986,300.1083,146.7724,213.2166,0,U,43245,999,5581,0,-.68E-6,0
BEIDOU-3 M10 (C30),2018-029B,2026-06-12T14:05:47.607648,1.86229309,.00039027,54.1961,300.1366,39.2234,320.7882,0,U,43246,999,5579,0,-.68E-6,0
IRNSS-1I,2018-035A,2026-06-12T23:27:14.766336,1.00271228,.00179436,28.7447,74.2620,181.4683,52.2315,0,U,43286,999,3003,0,.73E-6,0
BEIDOU-2 IGSO-7 (C16),2018-057A,2026-06-13T14:31:18.615648,1.00252108,.01048981,55.1943,163.0896,237.9333,188.9568,0,U,43539,999,2909,0,.12E-6,0
GSAT0222 (GALILEO 26),2018-060B,2026-06-12T00:07:45.785856,1.70475625,.00019184,57.1760,341.9240,251.7129,108.2786,0,U,43565,999,4912,0,-.67E-6,0
GSAT0219 (GALILEO 23),2018-060C,2026-06-12T19:30:31.944672,1.70475826,.00021318,57.1736,341.9035,327.1356,32.8607,0,U,43566,999,4911,0,-.71E-6,0
GSAT0220 (GALILEO 24),2018-060D,2026-06-11T20:39:23.261760,1.70475609,.00022524,57.1774,341.9298,315.5047,44.4900,0,U,43567,999,4908,0,-.67E-6,0
BEIDOU-3 M5 (C23),2018-062A,2026-06-13T08:21:45.241056,1.86228409,.00055552,54.0854,182.4348,288.6407,71.3585,0,U,43581,999,5356,0,.114E-5,0
BEIDOU-3 M12 (C26),2018-067A,2026-06-12T14:43:12.512064,1.86227819,.0007719,54.1800,181.1956,30.1109,329.9936,0,U,43602,999,5303,0,.122E-5,0
BEIDOU-3 M11 (C25),2018-067B,2026-06-13T06:50:54.095712,1.86227214,.00044328,54.1775,181.1364,13.2229,346.8460,0,U,43603,999,5307,0,.115E-5,0
BEIDOU-3 M13 (C32),2018-072A,2026-06-13T05:45:51.977952,1.86231417,.00073775,56.6211,62.7905,328.0802,31.9020,0,U,43622,999,5258,0,-.56E-6,0
BEIDOU-3 M14 (C33),2018-072B,2026-06-13T02:32:05.570592,1.86231442,.00061565,56.6225,62.7893,358.8558,1.1692,0,U,43623,999,5257,0,-.56E-6,0
BEIDOU-3 G1 (C59),2018-085A,2026-06-13T12:12:12.324672,1.00270641,.00081337,2.8575,97.4916,348.6643,158.6872,0,U,43683,999,2802,0,-.99E-6,0
BEIDOU-3 M17 (C36),2018-093A,2026-06-10T11:08:16.160352,1.86228347,.00100759,54.1687,182.5246,291.4418,158.4113,0,U,43706,999,5141,0,.127E-5,0
GPS BIII-1  (PRN 04),2018-109A,2026-06-13T04:17:15.042048,2.00561338,.00381599,55.6795,92.3452,198.0597,271.3624,0,U,43873,999,5499,0,-.23E-6,0
