{"fetched_at":"2026-06-14T03:48:42Z","count":16735,"tles":[{"name":"GSAT0220 (GALILEO 24)","line1":"1 43567U 18060D   26162.86068590 -.00000067  00000+0  00000+0 0  9991","line2":"2 43567  57.1774 341.9298 0002252 315.5047  44.4900  1.70475609 49081","category":"GPS"},{"name":"GPS BIII-1","line1":"1 43873U 18109A   26164.17864632 -.00000023  00000+0  00000+0 0  9994","line2":"2 43873  55.6795  92.3452 0038159 198.0597 271.3624  2.00561338 54994","category":"GPS"},{"name":"BEIDOU-3 M17","line1":"1 43706U 18093A   26161.46407593  .00000127  00000+0  00000+0 0  9993","line2":"2 43706  54.1687 182.5246 0010075 291.4418 158.4113  1.86228347 51418","category":"GPS"},{"name":"BEIDOU-3 M11","line1":"1 43603U 18067B   26164.28534833  .00000115  00000+0  00000+0 0  9998","line2":"2 43603  54.1775 181.1364 0004432  13.2229 346.8460  1.86227214 53072","category":"GPS"},{"name":"BEIDOU-3 M8","line1":"1 43108U 18003B   26162.92575939 -.00000068  00000+0  00000+0 0  9997","line2":"2 43108  54.3258 302.4809 0002464 263.1764  96.7794  1.86231100 57260","category":"GPS"},{"name":"BEIDOU-3 G1","line1":"1 43683U 18085A   26164.50847598 -.00000099  00000+0  00000+0 0  9998","line2":"2 43683   2.8575  97.4916 0008133 348.6643 158.6872  1.00270641 28028","category":"GPS"},{"name":"BEIDOU-3 M13","line1":"1 43622U 18072A   26164.24018493 -.00000056  00000+0  00000+0 0  9995","line2":"2 43622  56.6211  62.7905 0007377 328.0802  31.9020  1.86231417 52584","category":"GPS"},{"name":"BEIDOU-2 IGSO-7","line1":"1 43539U 18057A   26164.60507657  .00000012  00000+0  00000+0 0  9991","line2":"2 43539  55.1943 163.0896 0104898 237.9333 188.9568  1.00252108 29090","category":"GPS"},{"name":"BEIDOU-3 M10","line1":"1 43246U 18029B   26163.58735657 -.00000068  00000+0  00000+0 0  9996","line2":"2 43246  54.1961 300.1366 0003902  39.2234 320.7882  1.86229309 55799","category":"GPS"},{"name":"GSAT0216 (GALILEO 20)","line1":"1 43056U 17079B   26161.26776505  .00000050  00000+0  00000+0 0  9999","line2":"2 43056  55.0753 221.6973 0003701 276.7573  83.2861  1.70474756 52885","category":"GPS"},{"name":"BEIDOU-3 M9","line1":"1 43245U 18029A   26163.65297359 -.00000068  00000+0  00000+0 0  9995","line2":"2 43245  54.1986 300.1083 0000893 146.7724 213.2166  1.86228237 55818","category":"GPS"},{"name":"IRNSS-1I","line1":"1 43286U 18035A   26163.97725424  .00000073  00000+0  00000+0 0  9996","line2":"2 43286  28.7447  74.2620 0017943 181.4683  52.2315  1.00271228 30030","category":"Other"},{"name":"BEIDOU-3 M5","line1":"1 43581U 18062A   26164.34844029  .00000114  00000+0  00000+0 0  9995","line2":"2 43581  54.0854 182.4348 0005555 288.6407  71.3585  1.86228409 53562","category":"GPS"},{"name":"BEIDOU-3 M12","line1":"1 43602U 18067A   26163.61333926  .00000122  00000+0  00000+0 0  9991","line2":"2 43602  54.1800 181.1956 0007719  30.1109 329.9936  1.86227819 53030","category":"GPS"},{"name":"GSAT0218 (GALILEO 22)","line1":"1 43058U 17079D   26164.05497403  .00000061  00000+0  00000+0 0  9990","line2":"2 43058  55.0728 221.6159 0005024 272.4694  87.5720  1.70474471 52944","category":"GPS"},{"name":"GSAT0222 (GALILEO 26)","line1":"1 43565U 18060B   26163.00539104 -.00000067  00000+0  00000+0 0  9990","line2":"2 43565  57.1760 341.9240 0001918 251.7129 108.2786  1.70475625 49125","category":"GPS"},{"name":"GSAT0219 (GALILEO 23)","line1":"1 43566U 18060C   26163.81286973 -.00000071  00000+0  00000+0 0  9998","line2":"2 43566  57.1736 341.9035 0002131 327.1356  32.8607  1.70475826 49115","category":"GPS"},{"name":"BEIDOU-3 M14","line1":"1 43623U 18072B   26164.10562003 -.00000056  00000+0  00000+0 0  9992","line2":"2 43623  56.6225  62.7893 0006156 358.8558   1.1692  1.86231442 52570","category":"GPS"},{"name":"GSAT0215 (GALILEO 19)","line1":"1 43055U 17079A   26164.49612068  .00000062  00000+0  00000+0 0  9992","line2":"2 43055  55.0744 221.6084 0003010 262.8024  97.2638  1.70474538 52927","category":"GPS"},{"name":"GSAT0217 (GALILEO 21)","line1":"1 43057U 17079C   26163.83489939  .00000061  00000+0  00000+0 0  9999","line2":"2 43057  55.0731 221.6247 0004463 283.7261  76.3221  1.70474017 52911","category":"GPS"},{"name":"BEIDOU-3 M4","line1":"1 43207U 18018A   26160.14697391 -.00000046  00000+0  00000+0 0  9998","line2":"2 43207  56.6431  63.4146 0007688  17.0743 342.9760  1.86231351 56594","category":"GPS"},{"name":"BEIDOU-3 M7","line1":"1 43107U 18003A   26163.51786711 -.00000069  00000+0  00000+0 0  9995","line2":"2 43107  54.3326 302.4785 0004908  93.1066 266.9324  1.86228217 57264","category":"GPS"}]}